{
    "links": {
        "self": "http://www.neowsapp.com/rest/v1/neo/3802082?api_key=iIulBulltgU6a56xZRHN4H3l9WmuAYTsLGpBGhQ2"
    },
    "id": "3802082",
    "neo_reference_id": "3802082",
    "name": "(2018 FP4)",
    "designation": "2018 FP4",
    "nasa_jpl_url": "http://ssd.jpl.nasa.gov/sbdb.cgi?sstr=3802082",
    "absolute_magnitude_h": 25.3,
    "estimated_diameter": {
        "kilometers": {
            "estimated_diameter_min": 0.0231502122,
            "estimated_diameter_max": 0.0517654482
        },
        "meters": {
            "estimated_diameter_min": 23.150212221,
            "estimated_diameter_max": 51.7654482198
        },
        "miles": {
            "estimated_diameter_min": 0.0143848705,
            "estimated_diameter_max": 0.0321655483
        },
        "feet": {
            "estimated_diameter_min": 75.9521422633,
            "estimated_diameter_max": 169.8341531374
        }
    },
    "is_potentially_hazardous_asteroid": false,
    "close_approach_data": [
        {
            "close_approach_date": "2014-03-20",
            "close_approach_date_full": "2014-Mar-20 00:20",
            "epoch_date_close_approach": 1395274800000,
            "relative_velocity": {
                "kilometers_per_second": "12.8647512878",
                "kilometers_per_hour": "46313.1046361495",
                "miles_per_hour": "28777.162155723"
            },
            "miss_distance": {
                "astronomical": "0.2764632834",
                "lunar": "107.5442172426",
                "kilometers": "41358318.329846358",
                "miles": "25698867.3378534204"
            },
            "orbiting_body": "Earth"
        },
        {
            "close_approach_date": "2016-03-23",
            "close_approach_date_full": "2016-Mar-23 22:54",
            "epoch_date_close_approach": 1458773640000,
            "relative_velocity": {
                "kilometers_per_second": "10.6654657999",
                "kilometers_per_hour": "38395.676879528",
                "miles_per_hour": "23857.5804477267"
            },
            "miss_distance": {
                "astronomical": "0.1720938525",
                "lunar": "66.9445086225",
                "kilometers": "25744873.774094175",
                "miles": "15997122.766782615"
            },
            "orbiting_body": "Earth"
        },
        {
            "close_approach_date": "2018-03-28",
            "close_approach_date_full": "2018-Mar-28 20:06",
            "epoch_date_close_approach": 1522267560000,
            "relative_velocity": {
                "kilometers_per_second": "9.1189541354",
                "kilometers_per_hour": "32828.2348874433",
                "miles_per_hour": "20398.1885054783"
            },
            "miss_distance": {
                "astronomical": "0.0992261281",
                "lunar": "38.5989638309",
                "kilometers": "14844017.412107147",
                "miles": "9223644.7137947486"
            },
            "orbiting_body": "Earth"
        },
        {
            "close_approach_date": "2020-04-01",
            "close_approach_date_full": "2020-Apr-01 14:13",
            "epoch_date_close_approach": 1585750380000,
            "relative_velocity": {
                "kilometers_per_second": "8.4596014987",
                "kilometers_per_hour": "30454.5653954081",
                "miles_per_hour": "18923.2825924968"
            },
            "miss_distance": {
                "astronomical": "0.1185181174",
                "lunar": "46.1035476686",
                "kilometers": "17730057.919449938",
                "miles": "11016947.1285196244"
            },
            "orbiting_body": "Earth"
        },
        {
            "close_approach_date": "2022-04-06",
            "close_approach_date_full": "2022-Apr-06 19:46",
            "epoch_date_close_approach": 1649274360000,
            "relative_velocity": {
                "kilometers_per_second": "8.8373954615",
                "kilometers_per_hour": "31814.6236614693",
                "miles_per_hour": "19768.3699078724"
            },
            "miss_distance": {
                "astronomical": "0.2046929846",
                "lunar": "79.6255710094",
                "kilometers": "30621634.500102802",
                "miles": "19027401.3660385876"
            },
            "orbiting_body": "Earth"
        }
    ],
    "orbital_data": {
        "orbit_id": "5",
        "orbit_determination_date": "2018-04-10 06:23:22",
        "first_observation_date": "2018-03-21",
        "last_observation_date": "2018-04-08",
        "data_arc_in_days": 18,
        "observations_used": 27,
        "orbit_uncertainty": "8",
        "minimum_orbit_intersection": ".0934808",
        "jupiter_tisserand_invariant": "4.274",
        "epoch_osculation": "2458206.5",
        "eccentricity": ".3231404948204943",
        "semi_major_axis": "1.596184777346827",
        "inclination": "14.71788475261744",
        "ascending_node_longitude": "183.399304672306",
        "orbital_period": "736.5855144901103",
        "perihelion_distance": "1.080392838570033",
        "perihelion_argument": "19.65901025931642",
        "aphelion_distance": "2.111976716123622",
        "perihelion_time": "2458219.529776745071",
        "mean_anomaly": "353.6318057632824",
        "mean_motion": ".4887416232305414",
        "equinox": "J2000",
        "orbit_class": {
            "orbit_class_type": "AMO",
            "orbit_class_description": "Near-Earth asteroid orbits similar to that of 1221 Amor",
            "orbit_class_range": "1.017 AU < q (perihelion) < 1.3 AU"
        }
    },
    "is_sentry_object": false
}